{
  "type": "FeatureCollection",
  "features": [
    {
      "type": "Feature",
      "properties": {
        "norad_id": 31878,
        "name": "FENGYUN 1C DEB",
        "group": "fengyun-1c-debris",
        "lat": 79.89828185657791,
        "lon": 152.46736218816613,
        "alt_km": 660.6943510048686,
        "timestamp": "2025-12-06T22:38:43.012559+00:00",
        "meta_object_name": "FENGYUN 1C DEB",
        "meta_object_id": "1999-025CKD",
        "meta_epoch": "2025-12-03T00:27:41.548032",
        "meta_mean_motion": 14.85464766,
        "meta_eccentricity": 0.00842743,
        "meta_inclination": 99.4399,
        "meta_ra_of_asc_node": 258.7733,
        "meta_arg_of_pericenter": 269.6043,
        "meta_mean_anomaly": 89.551,
        "meta_ephemeris_type": 0,
        "meta_classification_type": "U",
        "meta_norad_cat_id": 31878,
        "meta_element_set_no": 999,
        "meta_rev_at_epoch": 97949,
        "meta_bstar": 0.0019397439,
        "meta_mean_motion_dot": 0.000178,
        "meta_mean_motion_ddot": 0,
        "tle_line1": "1 31878U 99025CKD 25337.01923088  .00017800  00000+0  19397-2 0  9999",
        "tle_line2": "2 31878  99.4399 258.7733 0084274 269.6043  89.5510 14.85464766979499"
      },
      "geometry": {
        "type": "Point",
        "coordinates": [
          152.46736218816613,
          79.89828185657791
        ]
      }
    },
    {
      "type": "Feature",
      "properties": {
        "norad_id": 31879,
        "name": "FENGYUN 1C DEB",
        "group": "fengyun-1c-debris",
        "lat": 52.420929113046164,
        "lon": -154.24613184721358,
        "alt_km": 594.339776816676,
        "timestamp": "2025-12-06T22:38:43.012569+00:00",
        "meta_object_name": "FENGYUN 1C DEB",
        "meta_object_id": "1999-025CKE",
        "meta_epoch": "2025-12-06T12:25:17.423328",
        "meta_mean_motion": 14.42878712,
        "meta_eccentricity": 0.02100051,
        "meta_inclination": 99.708,
        "meta_ra_of_asc_node": 218.1225,
        "meta_arg_of_pericenter": 54.7428,
        "meta_mean_anomaly": 307.3211,
        "meta_ephemeris_type": 0,
        "meta_classification_type": "U",
        "meta_norad_cat_id": 31879,
        "meta_element_set_no": 999,
        "meta_rev_at_epoch": 63120,
        "meta_bstar": 0.00055530099,
        "meta_mean_motion_dot": 2.356e-05,
        "meta_mean_motion_ddot": 0,
        "tle_line1": "1 31879U 99025CKE 25340.51756277  .00002356  00000+0  55530-3 0  9993",
        "tle_line2": "2 31879  99.7080 218.1225 0210005  54.7428 307.3211 14.42878712631205"
      },
      "geometry": {
        "type": "Point",
        "coordinates": [
          -154.24613184721358,
          52.420929113046164
        ]
      }
    },
    {
      "type": "Feature",
      "properties": {
        "norad_id": 31880,
        "name": "FENGYUN 1C DEB",
        "group": "fengyun-1c-debris",
        "lat": -0.005598376992102061,
        "lon": 143.30815090679027,
        "alt_km": 1025.0217565077537,
        "timestamp": "2025-12-06T22:38:43.012579+00:00",
        "meta_object_name": "FENGYUN 1C DEB",
        "meta_object_id": "1999-025CKF",
        "meta_epoch": "2025-11-25T04:55:41.522880",
        "meta_mean_motion": 13.89366235,
        "meta_eccentricity": 0.01285165,
        "meta_inclination": 100.0297,
        "meta_ra_of_asc_node": 130.6763,
        "meta_arg_of_pericenter": 197.7169,
        "meta_mean_anomaly": 161.9484,
        "meta_ephemeris_type": 0,
        "meta_classification_type": "U",
        "meta_norad_cat_id": 31880,
        "meta_element_set_no": 999,
        "meta_rev_at_epoch": 62736,
        "meta_bstar": 0.0005535194,
        "meta_mean_motion_dot": 6.7e-06,
        "meta_mean_motion_ddot": 0,
        "tle_line1": "1 31880U 99025CKF 25329.20534170  .00000670  00000+0  55352-3 0  9993",
        "tle_line2": "2 31880 100.0297 130.6763 0128516 197.7169 161.9484 13.89366235627363"
      },
      "geometry": {
        "type": "Point",
        "coordinates": [
          143.30815090679027,
          -0.005598376992102061
        ]
      }
    },
    {
      "type": "Feature",
      "properties": {
        "norad_id": 31882,
        "name": "FENGYUN 1C DEB",
        "group": "fengyun-1c-debris",
        "lat": 12.68579877316731,
        "lon": 85.52245375125393,
        "alt_km": 843.6997946077954,
        "timestamp": "2025-12-06T22:38:43.012589+00:00",
        "meta_object_name": "FENGYUN 1C DEB",
        "meta_object_id": "1999-025CKH",
        "meta_epoch": "2025-12-04T12:04:11.131104",
        "meta_mean_motion": 14.12940251,
        "meta_eccentricity": 0.0035445,
        "meta_inclination": 98.9162,
        "meta_ra_of_asc_node": 261.0675,
        "meta_arg_of_pericenter": 248.9848,
        "meta_mean_anomaly": 110.7531,
        "meta_ephemeris_type": 0,
        "meta_classification_type": "U",
        "meta_norad_cat_id": 31882,
        "meta_element_set_no": 999,
        "meta_rev_at_epoch": 58520,
        "meta_bstar": 0.0011941,
        "meta_mean_motion_dot": 2.193e-05,
        "meta_mean_motion_ddot": 0,
        "tle_line1": "1 31882U 99025CKH 25338.50290661  .00002193  00000+0  11941-2 0  9999",
        "tle_line2": "2 31882  98.9162 261.0675 0035445 248.9848 110.7531 14.12940251585207"
      },
      "geometry": {
        "type": "Point",
        "coordinates": [
          85.52245375125393,
          12.68579877316731
        ]
      }
    },
    {
      "type": "Feature",
      "properties": {
        "norad_id": 31883,
        "name": "FENGYUN 1C DEB",
        "group": "fengyun-1c-debris",
        "lat": 10.336683982265127,
        "lon": 78.64168000738479,
        "alt_km": 657.6082291184648,
        "timestamp": "2025-12-06T22:38:43.012599+00:00",
        "meta_object_name": "FENGYUN 1C DEB",
        "meta_object_id": "1999-025CKJ",
        "meta_epoch": "2025-12-06T05:31:36.189408",
        "meta_mean_motion": 14.67656336,
        "meta_eccentricity": 0.01251985,
        "meta_inclination": 99.0279,
        "meta_ra_of_asc_node": 256.1942,
        "meta_arg_of_pericenter": 89.0094,
        "meta_mean_anomaly": 272.545,
        "meta_ephemeris_type": 0,
        "meta_classification_type": "U",
        "meta_norad_cat_id": 31883,
        "meta_element_set_no": 999,
        "meta_rev_at_epoch": 97883,
        "meta_bstar": 0.0012344333,
        "meta_mean_motion_dot": 7.845e-05,
        "meta_mean_motion_ddot": 0,
        "tle_line1": "1 31883U 99025CKJ 25340.23027997  .00007845  00000+0  12344-2 0  9990",
        "tle_line2": "2 31883  99.0279 256.1942 0125198  89.0094 272.5450 14.67656336978833"
      },
      "geometry": {
        "type": "Point",
        "coordinates": [
          78.64168000738479,
          10.336683982265127
        ]
      }
    },
    {
      "type": "Feature",
      "properties": {
        "norad_id": 31887,
        "name": "FENGYUN 1C DEB",
        "group": "fengyun-1c-debris",
        "lat": 23.723088031257397,
        "lon": -144.05741280226636,
        "alt_km": 711.7164545103942,
        "timestamp": "2025-12-06T22:38:43.012609+00:00",
        "meta_object_name": "FENGYUN 1C DEB",
        "meta_object_id": "1999-025CKN",
        "meta_epoch": "2025-12-06T10:24:10.260576",
        "meta_mean_motion": 14.57715453,
        "meta_eccentricity": 0.0024304,
        "meta_inclination": 99.5345,
        "meta_ra_of_asc_node": 31.1232,
        "meta_arg_of_pericenter": 24.1294,
        "meta_mean_anomaly": 336.1034,
        "meta_ephemeris_type": 0,
        "meta_classification_type": "U",
        "meta_norad_cat_id": 31887,
        "meta_element_set_no": 999,
        "meta_rev_at_epoch": 96516,
        "meta_bstar": 0.0019004509,
        "meta_mean_motion_dot": 8.664e-05,
        "meta_mean_motion_ddot": 0,
        "tle_line1": "1 31887U 99025CKN 25340.43345209  .00008664  00000+0  19005-2 0  9996",
        "tle_line2": "2 31887  99.5345  31.1232 0024304  24.1294 336.1034 14.57715453965160"
      },
      "geometry": {
        "type": "Point",
        "coordinates": [
          -144.05741280226636,
          23.723088031257397
        ]
      }
    },
    {
      "type": "Feature",
      "properties": {
        "norad_id": 31888,
        "name": "FENGYUN 1C DEB",
        "group": "fengyun-1c-debris",
        "lat": -33.958923010972775,
        "lon": -86.75606637956527,
        "alt_km": 784.9336349465084,
        "timestamp": "2025-12-06T22:38:43.012619+00:00",
        "meta_object_name": "FENGYUN 1C DEB",
        "meta_object_id": "1999-025CKP",
        "meta_epoch": "2025-12-06T12:45:25.766208",
        "meta_mean_motion": 14.33831773,
        "meta_eccentricity": 0.00177321,
        "meta_inclination": 99.1515,
        "meta_ra_of_asc_node": 266.5759,
        "meta_arg_of_pericenter": 237.331,
        "meta_mean_anomaly": 122.6163,
        "meta_ephemeris_type": 0,
        "meta_classification_type": "U",
        "meta_norad_cat_id": 31888,
        "meta_element_set_no": 999,
        "meta_rev_at_epoch": 95548,
        "meta_bstar": 0.0034906927,
        "meta_mean_motion_dot": 9.694e-05,
        "meta_mean_motion_ddot": 0,
        "tle_line1": "1 31888U 99025CKP 25340.53154822  .00009694  00000+0  34907-2 0  9999",
        "tle_line2": "2 31888  99.1515 266.5759 0017732 237.3310 122.6163 14.33831773955481"
      },
      "geometry": {
        "type": "Point",
        "coordinates": [
          -86.75606637956527,
          -33.958923010972775
        ]
      }
    }
  ]
}